sat44615
1 44615U 18015L   20046.84548057  .00004815  00000-0  12935-3 0  9999
2 44615  97.5255 198.6952 0046870 168.3230 191.9113 15.37310902113554
